[{"OBJECT_NAME":"LEMUR-2-AMANDA-SVANTE","OBJECT_ID":"2021-034B","EPOCH":"2026-03-09T18:37:58.823328","MEAN_MOTION":15.28469003,"ECCENTRICITY":0.00027027,"INCLINATION":97.5829,"RA_OF_ASC_NODE":144.8625,"ARG_OF_PERICENTER":205.4721,"MEAN_ANOMALY":154.6385,"EPHEMERIS_TYPE":0,"CLASSIFICATION_TYPE":"U","NORAD_CAT_ID":48269,"ELEMENT_SET_NO":999,"REV_AT_EPOCH":26584,"BSTAR":0.0011134246,"MEAN_MOTION_DOT":0.00030872,"MEAN_MOTION_DDOT":0},{"OBJECT_NAME":"STARLINK-32781","OBJECT_ID":"2025-019V","EPOCH":"2026-03-09T10:44:01.506624","MEAN_MOTION":15.27590634,"ECCENTRICITY":0.00019403,"INCLINATION":43.0046,"RA_OF_ASC_NODE":90.3672,"ARG_OF_PERICENTER":245.1224,"MEAN_ANOMALY":114.9426,"EPHEMERIS_TYPE":0,"CLASSIFICATION_TYPE":"U","NORAD_CAT_ID":62848,"ELEMENT_SET_NO":999,"REV_AT_EPOCH":6221,"BSTAR":0.0009831518,"MEAN_MOTION_DOT":0.000269,"MEAN_MOTION_DDOT":0}]
