LEMUR-2-AMANDA-SVANTE   
1 48269U 21034B   26068.77637527  .00030872  00000+0  11134-2 0  9996
2 48269  97.5829 144.8625 0002703 205.4721 154.6385 15.28469003265849
STARLINK-32781          
1 62848U 25019V   26068.44723966  .00026900  00000+0  98315-3 0  9993
2 62848  43.0046  90.3672 0001940 245.1224 114.9426 15.27590634 62218
